$$SOE
2460147.500000000, A.D. 2023-Jul-22 00:00:00.0000, -6.502250670115532E+09, 1.824825275153424E+09, -2.456530590293119E+09,
2460154.500000000, A.D. 2023-Jul-29 00:00:00.0000, -6.502767566798891E+09, 1.822606660323978E+09, -2.456702573246445E+09,
2460161.500000000, A.D. 2023-Aug-05 00:00:00.0000, -6.503283696228642E+09, 1.820387781359709E+09, -2.456874232233568E+09,
2460168.500000000, A.D. 2023-Aug-12 00:00:00.0000, -6.503799060620856E+09, 1.818168636583020E+09, -2.457045567076977E+09,
2460175.500000000, A.D. 2023-Aug-19 00:00:00.0000, -6.504313661886807E+09, 1.815949223827691E+09, -2.457216577629370E+09,
2460182.500000000, A.D. 2023-Aug-26 00:00:00.0000, -6.504827501632235E+09, 1.813729540528876E+09, -2.457387263767576E+09,
2460189.500000000, A.D. 2023-Sep-02 00:00:00.0000, -6.505340581179587E+09, 1.811509583741787E+09, -2.457557625391137E+09,
2460196.500000000, A.D. 2023-Sep-09 00:00:00.0000, -6.505852901576668E+09, 1.809289350047843E+09, -2.457727662432247E+09,
2460203.500000000, A.D. 2023-Sep-16 00:00:00.0000, -6.506364463423189E+09, 1.807068835290282E+09, -2.457897374897188E+09,
2460210.500000000, A.D. 2023-Sep-23 00:00:00.0000, -6.506875266098913E+09, 1.804848034426015E+09, -2.458066762953943E+09,
2460217.500000000, A.D. 2023-Sep-30 00:00:00.0000, -6.507385306732857E+09, 1.802626942684445E+09, -2.458235826937440E+09,
2460224.500000000, A.D. 2023-Oct-07 00:00:00.0000, -6.507894581267375E+09, 1.800405557490429E+09, -2.458404567100763E+09,
2460231.500000000, A.D. 2023-Oct-14 00:00:00.0000, -6.508403086577158E+09, 1.798183877838202E+09, -2.458572983478309E+09,
2460238.500000000, A.D. 2023-Oct-21 00:00:00.0000, -6.508910820414608E+09, 1.795961902719003E+09, -2.458741076025856E+09,
2460245.500000000, A.D. 2023-Oct-28 00:00:00.0000, -6.509417780605883E+09, 1.793739630862509E+09, -2.458908844721976E+09,
2460252.500000000, A.D. 2023-Nov-04 00:00:00.0000, -6.509923964747696E+09, 1.791517061021697E+09, -2.459076289578822E+09,
2460259.500000000, A.D. 2023-Nov-11 00:00:00.0000, -6.510429370227258E+09, 1.789294192201242E+09, -2.459243410627350E+09,
2460266.500000000, A.D. 2023-Nov-18 00:00:00.0000, -6.510933994345906E+09, 1.787071023765164E+09, -2.459410207902114E+09,
2460273.500000000, A.D. 2023-Nov-25 00:00:00.0000, -6.511437834473566E+09, 1.784847555446267E+09, -2.459576681430226E+09,
2460280.500000000, A.D. 2023-Dec-02 00:00:00.0000, -6.511940888205862E+09, 1.782623787246182E+09, -2.459742831227830E+09,
2460287.500000000, A.D. 2023-Dec-09 00:00:00.0000, -6.512443153446063E+09, 1.780399719167106E+09, -2.459908657315902E+09,
2460294.500000000, A.D. 2023-Dec-16 00:00:00.0000, -6.512944628124310E+09, 1.778175350787782E+09, -2.460074159780711E+09,
2460301.500000000, A.D. 2023-Dec-23 00:00:00.0000, -6.513445309205679E+09, 1.775950681371202E+09, -2.460239338854740E+09,
2460308.500000000, A.D. 2023-Dec-30 00:00:00.0000, -6.513945192327276E+09, 1.773725711553239E+09, -2.460404194809535E+09,
2460315.500000000, A.D. 2024-Jan-06 00:00:00.0000, -6.514444273836861E+09, 1.771500444251550E+09, -2.460568727690964E+09,
2460322.500000000, A.D. 2024-Jan-13 00:00:00.0000, -6.514942552060204E+09, 1.769274882987782E+09, -2.460732937335833E+09,
2460329.500000000, A.D. 2024-Jan-20 00:00:00.0000, -6.515440026573651E+09, 1.767049030707721E+09, -2.460896823530217E+09,
2460336.500000000, A.D. 2024-Jan-27 00:00:00.0000, -6.515936697510633E+09, 1.764822889751524E+09, -2.461060386070405E+09,
2460343.500000000, A.D. 2024-Feb-03 00:00:00.0000, -6.516432565330477E+09, 1.762596462025473E+09, -2.461223624764908E+09,
2460350.500000000, A.D. 2024-Feb-10 00:00:00.0000, -6.516927630772166E+09, 1.760369749084088E+09, -2.461386539426987E+09,
2460357.500000000, A.D. 2024-Feb-17 00:00:00.0000, -6.517421894854351E+09, 1.758142752130548E+09, -2.461549129869942E+09,
2460364.500000000, A.D. 2024-Feb-24 00:00:00.0000, -6.517915358885655E+09, 1.755915471950204E+09, -2.461711395907400E+09,
2460371.500000000, A.D. 2024-Mar-02 00:00:00.0000, -6.518408024455970E+09, 1.753687908744664E+09, -2.461873337364066E+09,
2460378.500000000, A.D. 2024-Mar-09 00:00:00.0000, -6.518899893269868E+09, 1.751460061803589E+09, -2.462034954114871E+09,
2460385.500000000, A.D. 2024-Mar-16 00:00:00.0000, -6.519390966426890E+09, 1.749231929211482E+09, -2.462196246172719E+09,
2460392.500000000, A.D. 2024-Mar-23 00:00:00.0000, -6.519881243252256E+09, 1.747003508698490E+09, -2.462357213724746E+09,
2460399.500000000, A.D. 2024-Mar-30 00:00:00.0000, -6.520370721919130E+09, 1.744774799608440E+09, -2.462517856913704E+09,
2460406.500000000, A.D. 2024-Apr-06 00:00:00.0000, -6.520859401606433E+09, 1.742545802616503E+09, -2.462678175663212E+09,
2460413.500000000, A.D. 2024-Apr-13 00:00:00.0000, -6.521347282641073E+09, 1.740316518032889E+09, -2.462838169804203E+09,
2460420.500000000, A.D. 2024-Apr-20 00:00:00.0000, -6.521834365576700E+09, 1.738086945369257E+09, -2.462997839196492E+09,
2460427.500000000, A.D. 2024-Apr-27 00:00:00.0000, -6.522320650726058E+09, 1.735857083606431E+09, -2.463157183752164E+09,
2460434.500000000, A.D. 2024-May-04 00:00:00.0000, -6.522806138058986E+09, 1.733626931460136E+09, -2.463316203426257E+09,
2460441.500000000, A.D. 2024-May-11 00:00:00.0000, -6.523290827227732E+09, 1.731396487543135E+09, -2.463474898204819E+09,
2460448.500000000, A.D. 2024-May-18 00:00:00.0000, -6.523774717637605E+09, 1.729165750445649E+09, -2.463633268095966E+09,
2460455.500000000, A.D. 2024-May-25 00:00:00.0000, -6.524257808538226E+09, 1.726934718727263E+09, -2.463791313126595E+09,
2460462.500000000, A.D. 2024-Jun-01 00:00:00.0000, -6.524740099075551E+09, 1.724703390763208E+09, -2.463949033354721E+09,
2460469.500000000, A.D. 2024-Jun-08 00:00:00.0000, -6.525221588058304E+09, 1.722471764422382E+09, -2.464106428921673E+09,
2460476.500000000, A.D. 2024-Jun-15 00:00:00.0000, -6.525702273039275E+09, 1.720239837122486E+09, -2.464263500135974E+09,
2460483.500000000, A.D. 2024-Jun-22 00:00:00.0000, -6.526182149716738E+09, 1.718007607437613E+09, -2.464420247400404E+09,
2460490.500000000, A.D. 2024-Jun-29 00:00:00.0000, -6.526661213777575E+09, 1.715775076437726E+09, -2.464576670936183E+09,
2460497.500000000, A.D. 2024-Jul-06 00:00:00.0000, -6.527139462537157E+09, 1.713542246289026E+09, -2.464732770748610E+09,
2460504.500000000, A.D. 2024-Jul-13 00:00:00.0000, -6.527616894426670E+09, 1.711309118939418E+09, -2.464888546781992E+09,
2460511.500000000, A.D. 2024-Jul-20 00:00:00.0000, -6.528093508313589E+09, 1.709075696037810E+09, -2.465043998987778E+09,
2460518.500000000, A.D. 2024-Jul-27 00:00:00.0000, -6.528569303311275E+09, 1.706841979127835E+09, -2.465199127324111E+09,
2460525.500000000, A.D. 2024-Aug-03 00:00:00.0000, -6.529044278804759E+09, 1.704607969741145E+09, -2.465353931742562E+09,
2460532.500000000, A.D. 2024-Aug-10 00:00:00.0000, -6.529518434526949E+09, 1.702373669386019E+09, -2.465508412177748E+09,
2460539.500000000, A.D. 2024-Aug-17 00:00:00.0000, -6.529991770637930E+09, 1.700139079453280E+09, -2.465662568542583E+09,
2460546.500000000, A.D. 2024-Aug-24 00:00:00.0000, -6.530464287779503E+09, 1.697904201017641E+09, -2.465816400733795E+09,
2460553.500000000, A.D. 2024-Aug-31 00:00:00.0000, -6.530935986989380E+09, 1.695669034473377E+09, -2.465969908663579E+09,
2460560.500000000, A.D. 2024-Sep-07 00:00:00.0000, -6.531406869109482E+09, 1.693433579131016E+09, -2.466123092340845E+09,
2460567.500000000, A.D. 2024-Sep-14 00:00:00.0000, -6.531876933603165E+09, 1.691197833771264E+09, -2.466275951928753E+09,
2460574.500000000, A.D. 2024-Sep-21 00:00:00.0000, -6.532346178810117E+09, 1.688961798568941E+09, -2.466428487558933E+09,
2460581.500000000, A.D. 2024-Sep-28 00:00:00.0000, -6.532814604126493E+09, 1.686725475159492E+09, -2.466580699121644E+09,
2460588.500000000, A.D. 2024-Oct-05 00:00:00.0000, -6.533282210440575E+09, 1.684488864849848E+09, -2.466732586368449E+09,
2460595.500000000, A.D. 2024-Oct-12 00:00:00.0000, -6.533748999184517E+09, 1.682251967953898E+09, -2.466884149050902E+09,
2460602.500000000, A.D. 2024-Oct-19 00:00:00.0000, -6.534214971753192E+09, 1.680014783981863E+09, -2.467035386956830E+09,
2460609.500000000, A.D. 2024-Oct-26 00:00:00.0000, -6.534680129322408E+09, 1.677777311882410E+09, -2.467186299906735E+09,
2460616.500000000, A.D. 2024-Nov-02 00:00:00.0000, -6.535144472809082E+09, 1.675539550189325E+09, -2.467336887746080E+09,
2460623.500000000, A.D. 2024-Nov-09 00:00:00.0000, -6.535608002876642E+09, 1.673301497093736E+09, -2.467487150340538E+09,
2460630.500000000, A.D. 2024-Nov-16 00:00:00.0000, -6.536070719959599E+09, 1.671063150442445E+09, -2.467637087576571E+09,
2460637.500000000, A.D. 2024-Nov-23 00:00:00.0000, -6.536532624260195E+09, 1.668824507612760E+09, -2.467786699375612E+09,
2460644.500000000, A.D. 2024-Nov-30 00:00:00.0000, -6.536993715508711E+09, 1.666585565221406E+09, -2.467935985744380E+09,
2460651.500000000, A.D. 2024-Dec-07 00:00:00.0000, -6.537453992067891E+09, 1.664346319088420E+09, -2.468084946865328E+09,
2460658.500000000, A.D. 2024-Dec-14 00:00:00.0000, -6.537913450070004E+09, 1.662106765680103E+09, -2.468233583063885E+09,
2460665.500000000, A.D. 2024-Dec-21 00:00:00.0000, -6.538372084905027E+09, 1.659866903790462E+09, -2.468381894541126E+09,
2460672.500000000, A.D. 2024-Dec-28 00:00:00.0000, -6.538829893087455E+09, 1.657626733493866E+09, -2.468529881295062E+09,
2460679.500000000, A.D. 2025-Jan-04 00:00:00.0000, -6.539286871904420E+09, 1.655386254745170E+09, -2.468677543274416E+09,
2460686.500000000, A.D. 2025-Jan-11 00:00:00.0000, -6.539743018666296E+09, 1.653145467287175E+09, -2.468824880461938E+09,
2460693.500000000, A.D. 2025-Jan-18 00:00:00.0000, -6.540198330476624E+09, 1.650904370946672E+09, -2.468971892878000E+09,
2460700.500000000, A.D. 2025-Jan-25 00:00:00.0000, -6.540652804277705E+09, 1.648662965844517E+09, -2.469118580565321E+09,
2460707.500000000, A.D. 2025-Feb-01 00:00:00.0000, -6.541106436982256E+09, 1.646421252489623E+09, -2.469264943574400E+09,
$$EOE